{
  "type": "FeatureCollection",
  "features": [
    {
      "type": "Feature",
      "properties": {
        "norad_id": 66947,
        "name": "STARLINK-36089",
        "group": "last-30-days",
        "lat": -1.9532368373010531,
        "lon": 31.739191661305515,
        "alt_km": 302.99376657202083,
        "timestamp": "2025-12-16T03:53:25.818675+00:00",
        "meta_object_name": "STARLINK-36089",
        "meta_object_id": "2025-286Y",
        "meta_epoch": "2025-12-15T06:00:04.999968",
        "meta_mean_motion": 15.9281159,
        "meta_eccentricity": 0.00010094,
        "meta_inclination": 53.1562,
        "meta_ra_of_asc_node": 37.8486,
        "meta_arg_of_pericenter": 78.5227,
        "meta_mean_anomaly": 90.7215,
        "meta_ephemeris_type": 0,
        "meta_classification_type": "U",
        "meta_norad_cat_id": 66947,
        "meta_element_set_no": 999,
        "meta_rev_at_epoch": 239,
        "meta_bstar": -0.0043752865,
        "meta_mean_motion_dot": -0.01544701,
        "meta_mean_motion_ddot": 0.00068061673,
        "tle_line1": "1 66947U 25286Y   25349.25005787 -.01544701  68062-3 -43753-2 0  9995",
        "tle_line2": "2 66947  53.1562  37.8486 0001009  78.5227  90.7215 15.92811590  2392"
      },
      "geometry": {
        "type": "Point",
        "coordinates": [
          31.739191661305515,
          -1.9532368373010531
        ]
      }
    },
    {
      "type": "Feature",
      "properties": {
        "norad_id": 66948,
        "name": "STARLINK-36116",
        "group": "last-30-days",
        "lat": -3.4142638829433594,
        "lon": 30.64432247352191,
        "alt_km": 303.35347431051105,
        "timestamp": "2025-12-16T03:53:25.818685+00:00",
        "meta_object_name": "STARLINK-36116",
        "meta_object_id": "2025-286Z",
        "meta_epoch": "2025-12-15T06:00:04.999968",
        "meta_mean_motion": 15.92757698,
        "meta_eccentricity": 8.772e-05,
        "meta_inclination": 53.1563,
        "meta_ra_of_asc_node": 37.8521,
        "meta_arg_of_pericenter": 89.3209,
        "meta_mean_anomaly": 78.249,
        "meta_ephemeris_type": 0,
        "meta_classification_type": "U",
        "meta_norad_cat_id": 66948,
        "meta_element_set_no": 999,
        "meta_rev_at_epoch": 239,
        "meta_bstar": -0.0043642191,
        "meta_mean_motion_dot": -0.0153654,
        "meta_mean_motion_ddot": 0.00067368699,
        "tle_line1": "1 66948U 25286Z   25349.25005787 -.01536540  67369-3 -43642-2 0  9994",
        "tle_line2": "2 66948  53.1563  37.8521 0000877  89.3209  78.2490 15.92757698  2390"
      },
      "geometry": {
        "type": "Point",
        "coordinates": [
          30.64432247352191,
          -3.4142638829433594
        ]
      }
    },
    {
      "type": "Feature",
      "properties": {
        "norad_id": 66949,
        "name": "STARLINK-36096",
        "group": "last-30-days",
        "lat": -0.4357297365114762,
        "lon": 32.873951884774044,
        "alt_km": 302.67373377261356,
        "timestamp": "2025-12-16T03:53:25.818696+00:00",
        "meta_object_name": "STARLINK-36096",
        "meta_object_id": "2025-286AA",
        "meta_epoch": "2025-12-15T06:00:04.999968",
        "meta_mean_motion": 15.92862888,
        "meta_eccentricity": 8.701e-05,
        "meta_inclination": 53.1564,
        "meta_ra_of_asc_node": 37.8451,
        "meta_arg_of_pericenter": 90.2142,
        "meta_mean_anomaly": 80.7447,
        "meta_ephemeris_type": 0,
        "meta_classification_type": "U",
        "meta_norad_cat_id": 66949,
        "meta_element_set_no": 999,
        "meta_rev_at_epoch": 239,
        "meta_bstar": -0.0043515805,
        "meta_mean_motion_dot": -0.015405,
        "meta_mean_motion_ddot": 0.00067757113,
        "tle_line1": "1 66949U 25286AA  25349.25005787 -.01540500  67757-3 -43516-2 0  9997",
        "tle_line2": "2 66949  53.1564  37.8451 0000870  90.2142  80.7447 15.92862888  2392"
      },
      "geometry": {
        "type": "Point",
        "coordinates": [
          32.873951884774044,
          -0.4357297365114762
        ]
      }
    },
    {
      "type": "Feature",
      "properties": {
        "norad_id": 66950,
        "name": "STARLINK-36111",
        "group": "last-30-days",
        "lat": 2.706314368804513,
        "lon": 35.22383656343589,
        "alt_km": 301.89577874252063,
        "timestamp": "2025-12-16T03:53:25.818706+00:00",
        "meta_object_name": "STARLINK-36111",
        "meta_object_id": "2025-286AB",
        "meta_epoch": "2025-12-15T06:00:04.999968",
        "meta_mean_motion": 15.92972002,
        "meta_eccentricity": 0.00010017,
        "meta_inclination": 53.1564,
        "meta_ra_of_asc_node": 37.8377,
        "meta_arg_of_pericenter": 80.7303,
        "meta_mean_anomaly": 93.8245,
        "meta_ephemeris_type": 0,
        "meta_classification_type": "U",
        "meta_norad_cat_id": 66950,
        "meta_element_set_no": 999,
        "meta_rev_at_epoch": 239,
        "meta_bstar": -0.0043533769,
        "meta_mean_motion_dot": -0.01549874,
        "meta_mean_motion_ddot": 0.00068588093,
        "tle_line1": "1 66950U 25286AB  25349.25005787 -.01549874  68588-3 -43534-2 0  9995",
        "tle_line2": "2 66950  53.1564  37.8377 0001001  80.7303  93.8245 15.92972002  2392"
      },
      "geometry": {
        "type": "Point",
        "coordinates": [
          35.22383656343589,
          2.706314368804513
        ]
      }
    },
    {
      "type": "Feature",
      "properties": {
        "norad_id": 66951,
        "name": "STARLINK-35999",
        "group": "last-30-days",
        "lat": 4.374826801319664,
        "lon": 36.47675399857296,
        "alt_km": 301.47031078464806,
        "timestamp": "2025-12-16T03:53:25.818716+00:00",
        "meta_object_name": "STARLINK-35999",
        "meta_object_id": "2025-286AC",
        "meta_epoch": "2025-12-15T06:00:04.999968",
        "meta_mean_motion": 15.93033531,
        "meta_eccentricity": 9.399e-05,
        "meta_inclination": 53.1564,
        "meta_ra_of_asc_node": 37.8336,
        "meta_arg_of_pericenter": 78.8105,
        "meta_mean_anomaly": 97.6557,
        "meta_ephemeris_type": 0,
        "meta_classification_type": "U",
        "meta_norad_cat_id": 66951,
        "meta_element_set_no": 999,
        "meta_rev_at_epoch": 239,
        "meta_bstar": -0.0043675195,
        "meta_mean_motion_dot": -0.01559798,
        "meta_mean_motion_ddot": 0.00069437186,
        "tle_line1": "1 66951U 25286AC  25349.25005787 -.01559798  69437-3 -43675-2 0  9992",
        "tle_line2": "2 66951  53.1564  37.8336 0000939  78.8105  97.6557 15.93033531  2399"
      },
      "geometry": {
        "type": "Point",
        "coordinates": [
          36.47675399857296,
          4.374826801319664
        ]
      }
    },
    {
      "type": "Feature",
      "properties": {
        "norad_id": 66952,
        "name": "STARLINK-36122",
        "group": "last-30-days",
        "lat": 1.1629769708398254,
        "lon": 34.06884843571989,
        "alt_km": 302.17252608059334,
        "timestamp": "2025-12-16T03:53:25.818727+00:00",
        "meta_object_name": "STARLINK-36122",
        "meta_object_id": "2025-286AD",
        "meta_epoch": "2025-12-15T06:00:04.999968",
        "meta_mean_motion": 15.92918052,
        "meta_eccentricity": 9.868e-05,
        "meta_inclination": 53.1564,
        "meta_ra_of_asc_node": 37.8414,
        "meta_arg_of_pericenter": 75.6847,
        "meta_mean_anomaly": 97.1093,
        "meta_ephemeris_type": 0,
        "meta_classification_type": "U",
        "meta_norad_cat_id": 66952,
        "meta_element_set_no": 999,
        "meta_rev_at_epoch": 239,
        "meta_bstar": -0.0043568355,
        "meta_mean_motion_dot": -0.01546761,
        "meta_mean_motion_ddot": 0.0006829948,
        "tle_line1": "1 66952U 25286AD  25349.25005787 -.01546761  68299-3 -43568-2 0  9995",
        "tle_line2": "2 66952  53.1564  37.8414 0000986  75.6847  97.1093 15.92918052  2396"
      },
      "geometry": {
        "type": "Point",
        "coordinates": [
          34.06884843571989,
          1.1629769708398254
        ]
      }
    },
    {
      "type": "Feature",
      "properties": {
        "norad_id": 66953,
        "name": "HULIANWANG DIGUI-114",
        "group": "last-30-days",
        "lat": 55.51739083241098,
        "lon": 159.79149433549972,
        "alt_km": 996.9675501727106,
        "timestamp": "2025-12-16T03:53:25.818737+00:00",
        "meta_object_name": "HULIANWANG DIGUI-114",
        "meta_object_id": "2025-287A",
        "meta_epoch": "2025-12-11T05:43:48.442368",
        "meta_mean_motion": 13.68688345,
        "meta_eccentricity": 0.00085506,
        "meta_inclination": 86.4966,
        "meta_ra_of_asc_node": 346.7027,
        "meta_arg_of_pericenter": 209.4482,
        "meta_mean_anomaly": 150.6197,
        "meta_ephemeris_type": 0,
        "meta_classification_type": "U",
        "meta_norad_cat_id": 66953,
        "meta_element_set_no": 999,
        "meta_rev_at_epoch": 32,
        "meta_bstar": 1.3583638e-05,
        "meta_mean_motion_dot": 2.8e-07,
        "meta_mean_motion_ddot": 0,
        "tle_line1": "1 66953U 25287A   25345.23875512  .00000028  00000+0  13584-4 0  9999",
        "tle_line2": "2 66953  86.4966 346.7027 0008550 209.4482 150.6197 13.68688345   322"
      },
      "geometry": {
        "type": "Point",
        "coordinates": [
          159.79149433549972,
          55.51739083241098
        ]
      }
    }
  ]
}